STARLINK-2213           
1 47780U 21017BL  26068.65627556  .00020507  00000+0  70254-3 0  9995
2 47780  53.1589 203.9945 0001113  71.0225 289.0897 15.30203136277894
YAM-7                   
1 60504U 24149AN  26068.71799904  .00009009  00000+0  30984-3 0  9997
2 60504  97.3828 149.4631 0001973 296.5121  63.5918 15.30304554 86835
